GSAT0219 (GALILEO 23)
1 43566U 18060C   25356.35659904 -.00000065  00000+0  00000+0 0  9991
2 43566  57.2283 346.5626 0005883 291.1394  68.8055  1.70475755 46179